      2.10          N: GNSS NAV DATA                        RINEX VERSION / TYPE
fic2rin                                 02/01/2023 00:17:40 PGM / RUN BY / DATE
                                                            END OF HEADER
30 23  1 31 20  0  0.0 -.531729776412D-03  .113686837722D-11  .000000000000D+00
     .450000000000D+02 -.403125000000D+01  .537772400379D-08 -.190087605445D+01
    -.437721610069D-06  .608421734069D-02  .624172389507D-05  .515363820648D+04
     .244800000000D+06  .614672899246D-07  .124995462106D+01 -.558793544769D-07
     .935244897367D+00  .244312500000D+03 -.265867357944D+01 -.828605943335D-08
    -.503592405216D-10  .100000000000D+01  .224700000000D+04  .000000000000D+00
     .240000000000D+01  .000000000000D+00  .372529029846D-08  .450000000000D+02
     .237600000000D+06  .400000000000D+01
27 23  1 31 20  0  0.0  .113393645734D-03 -.920863385545D-11  .000000000000D+00
     .660000000000D+02  .100843750000D+03  .434589530970D-08  .108082908304D+01
     .542216002941D-05  .112275026040D-01  .527128577232D-05  .515366800880D+04
     .244800000000D+06 -.875443220139D-07 -.295274385361D+01  .119209289551D-06
     .969467428610D+00  .282312500000D+03  .693587816614D+00 -.822427114533D-08
    -.560737642688D-10  .100000000000D+01  .224700000000D+04  .000000000000D+00
     .240000000000D+01  .000000000000D+00  .186264514923D-08  .660000000000D+02
     .237600000000D+06  .400000000000D+01
21 23  1 31 20  0  0.0  .153764616698D-03  .227373675443D-12  .000000000000D+00
     .810000000000D+02 -.342187500000D+02  .463805033627D-08  .101842617212D+01
    -.237114727497D-05  .248438402778D-01  .106357038021D-05  .515365858078D+04
     .244800000000D+06  .504776835442D-06 -.198715856924D+01 -.299885869026D-06
     .961256067968D+00  .353906250000D+03 -.826109709162D+00 -.846428114271D-08
    -.151434879299D-09  .100000000000D+01  .224700000000D+04  .000000000000D+00
     .240000000000D+01  .000000000000D+00 -.102445483208D-07  .810000000000D+02
     .237600000000D+06  .400000000000D+01
19 23  1 31 20  0  0.0  .271575991064D-03  .511590769747D-11  .000000000000D+00
     .410000000000D+02  .847500000000D+02  .411017120513D-08 -.311804844563D+01
     .442564487457D-05  .907291041221D-02  .450946390629D-05  .515360783005D+04
     .244800000000D+06 -.186264514923D-08 -.284329471148D+01  .195577740669D-06
     .975070984169D+00  .298687500000D+03  .223611905200D+01 -.785532720591D-08
     .646455498895D-10  .100000000000D+01  .224700000000D+04  .000000000000D+00
     .240000000000D+01  .000000000000D+00 -.153668224812D-07  .410000000000D+02
     .237600000000D+06  .400000000000D+01
26 23  1 31 20  0  0.0  .241041183472D-03  .454747350886D-12  .000000000000D+00
     .860000000000D+02  .534375000000D+02  .500199406742D-08  .284973845747D+01
     .269338488579D-05  .782156048808D-02  .933744013309D-05  .515363654327D+04
     .244800000000D+06 -.100582838058D-06  .222234255641D+01 -.949949026108D-07
     .934767772487D+00  .185812500000D+03  .443466964796D+00 -.799068998717D-08
    -.390373403476D-09  .100000000000D+01  .224700000000D+04  .000000000000D+00
     .240000000000D+01  .000000000000D+00  .698491930962D-08  .860000000000D+02
     .237600000000D+06  .400000000000D+01
17 23  1 31 20  0  0.0  .697100069374D-03  .238742359215D-11  .000000000000D+00
     .530000000000D+02  .836250000000D+02  .420410368922D-08  .103612240309D+01
     .409223139286D-05  .137217480224D-01  .533461570740D-05  .515370727348D+04
     .244800000000D+06 -.178813934326D-06 -.288790514166D+01 -.227242708206D-06
     .976087968245D+00  .286437500000D+03 -.142490474107D+01 -.813533886952D-08
     .303584074067D-10  .100000000000D+01  .224700000000D+04  .000000000000D+00
     .240000000000D+01  .000000000000D+00 -.111758708954D-07  .530000000000D+02
     .237600000000D+06  .400000000000D+01
13 23  1 31 20  0  0.0  .468646176159D-03  .613908923697D-11  .000000000000D+00
     .860000000000D+02 -.425000000000D+01  .445804283824D-08  .599541646779D+00
    -.301748514175D-06  .675703899469D-02  .786036252975D-05  .515366568756D+04
     .244800000000D+06 -.353902578354D-07  .328879093237D+00  .540167093277D-07
     .969735641473D+00  .233312500000D+03  .938807595893D+00 -.795676000242D-08
     .338228374284D-09  .100000000000D+01  .224700000000D+04  .000000000000D+00
     .240000000000D+01  .000000000000D+00 -.111758708954D-07  .860000000000D+02
     .237600000000D+06  .400000000000D+01
18 23  1 31 20  0  0.0 -.121721997857D-03 -.155750967679D-10  .000000000000D+00
     .181000000000D+03 -.500312500000D+02  .421910431406D-08 -.104603296649D+01
    -.266730785370D-05  .296016444918D-02  .275298953056D-05  .515369849586D+04
     .244800000000D+06 -.558793544769D-08 -.188399526134D+01 -.689178705215D-07
     .973065680434D+00  .332906250000D+03 -.310170451127D+01 -.814069623553D-08
    -.119647840956D-09  .100000000000D+01  .224700000000D+04  .000000000000D+00
     .240000000000D+01  .000000000000D+00 -.838190317154D-08  .181000000000D+03
     .237600000000D+06  .400000000000D+01
11 23  1 31 20  0  0.0 -.923061743379D-04 -.954969436862D-11  .000000000000D+00
     .202000000000D+03 -.400937500000D+02  .448804408791D-08  .300071586912D+00
    -.211410224438D-05  .778143526986D-03  .266730785370D-05  .515370065308D+04
     .244800000000D+06  .223517417908D-07 -.185101833169D+01  .130385160446D-07
     .964534417644D+00  .331343750000D+03 -.267358639372D+01 -.825962976102D-08
    -.942896418278D-10  .100000000000D+01  .224700000000D+04  .000000000000D+00
     .240000000000D+01  .000000000000D+00 -.884756445885D-08  .714000000000D+03
     .237600000000D+06  .400000000000D+01
25 23  1 31 20  0  0.0  .416183844209D-03  .329691829393D-11  .000000000000D+00
     .940000000000D+02  .507812500000D+02  .459054835762D-08 -.263507854532D+01
     .259093940258D-05  .111166123534D-01  .862404704094D-05  .515378433609D+04
     .244800000000D+06  .199303030968D-06  .227585045143D+01 -.117346644402D-06
     .954018492894D+00  .208468750000D+03  .102730473166D+01 -.778746723641D-08
    -.256082095419D-09  .100000000000D+01  .224700000000D+04  .000000000000D+00
     .340000000000D+01  .000000000000D+00  .558793544769D-08  .940000000000D+02
     .237600000000D+06  .400000000000D+01
14 23  1 31 20  0  0.0 -.375807285309D-04  .841282599140D-11  .000000000000D+00
     .112000000000D+03  .475625000000D+02  .467948063344D-08 -.250134570478D+01
     .251457095146D-05  .261825020425D-02  .932067632675D-05  .515366563606D+04
     .244800000000D+06 -.223517417908D-07  .231997173300D+01 -.149011611938D-07
     .949785409232D+00  .195218750000D+03 -.308351114562D+01 -.793390190743D-08
    -.305012705003D-09  .100000000000D+01  .224700000000D+04  .000000000000D+00
     .240000000000D+01  .000000000000D+00 -.791624188423D-08  .880000000000D+03
     .237600000000D+06  .400000000000D+01
23 23  1 31 20  0  0.0  .434508547187D-05  .136424205266D-11  .000000000000D+00
     .233000000000D+03 -.981562500000D+02  .391087718945D-08 -.205262857277D+01
    -.510364770889D-05  .297772896010D-02  .874511897564D-05  .515365269661D+04
     .244800000000D+06 -.670552253723D-07 -.883964861279D+00  .558793544769D-08
     .972234798556D+00  .217437500000D+03 -.311662273395D+01 -.770032074927D-08
     .169292766009D-09  .100000000000D+01  .224700000000D+04  .000000000000D+00
     .240000000000D+01  .000000000000D+00 -.838190317154D-08  .489000000000D+03
     .237600000000D+06  .400000000000D+01
22 23  1 31 20  0  0.0  .417623668909D-03  .795807864051D-11  .000000000000D+00
     .500000000000D+02 -.925000000000D+01  .462376402690D-08  .804004026589D+00
    -.486150383949D-06  .138415612746D-01  .829622149467D-05  .515358873367D+04
     .244800000000D+06 -.195577740669D-06  .274710418609D+00  .149011611938D-07
     .962578270883D+00  .221718750000D+03 -.182980774286D+01 -.813498171178D-08
     .347514475373D-09  .100000000000D+01  .224700000000D+04  .000000000000D+00
     .240000000000D+01  .630000000000D+02 -.791624188423D-08  .500000000000D+02
     .237600000000D+06  .400000000000D+01
11 23  1 31 20 14 40.0 -.923145562410D-04 -.954969436862D-11  .000000000000D+00
     .203000000000D+03 -.392812500000D+02  .448482966830D-08  .428375687681D+00
    -.207126140594D-05  .778237124905D-03  .267848372459D-05  .515370083618D+04
     .245680000000D+06  .186264514923D-07 -.185102557753D+01  .167638063431D-07
     .964534340110D+00  .331156250000D+03 -.267353710069D+01 -.825784397235D-08
    -.964325882329D-10  .100000000000D+01  .224700000000D+04  .000000000000D+00
     .240000000000D+01  .000000000000D+00 -.884756445885D-08  .715000000000D+03
     .238500000000D+06  .400000000000D+01
24 23  1 31 19 59 44.0 -.542192719877D-04 -.163709046319D-10  .000000000000D+00
     .240000000000D+02  .418750000000D+01  .550130057982D-08 -.883705557586D+00
     .428408384323D-06  .136953567853D-01  .615790486336D-05  .515365586662D+04
     .244784000000D+06  .137835741043D-06  .115337341900D+01  .286847352982D-06
     .933725137606D+00  .246781250000D+03  .882707316417D+00 -.848785355317D-08
    -.996470078407D-10  .100000000000D+01  .224700000000D+04  .000000000000D+00
     .240000000000D+01  .000000000000D+00  .232830643654D-08  .240000000000D+02
     .241830000000D+06  .400000000000D+01
25 23  1 31 19 59 44.0  .416181981564D-03  .329691829393D-11  .000000000000D+00
     .500000000000D+01  .507812500000D+02  .459054835762D-08 -.263741271158D+01
     .259093940258D-05  .111166086281D-01  .862404704094D-05  .515378433800D+04
     .244784000000D+06  .199303030968D-06  .227585057285D+01 -.117346644402D-06
     .954018495820D+00  .208468750000D+03  .102730527148D+01 -.778746723641D-08
    -.256082095419D-09  .100000000000D+01  .224700000000D+04  .000000000000D+00
     .240000000000D+01  .000000000000D+00  .558793544769D-08  .500000000000D+01
     .241860000000D+06  .400000000000D+01
